[{"OBJECT_NAME":"PROBA-2","OBJECT_ID":"2009-059B","EPOCH":"2026-03-09T22:14:08.403360","MEAN_MOTION":14.54791624,"ECCENTRICITY":0.00123546,"INCLINATION":98.2432,"RA_OF_ASC_NODE":253.6562,"ARG_OF_PERICENTER":223.465,"MEAN_ANOMALY":136.5574,"EPHEMERIS_TYPE":0,"CLASSIFICATION_TYPE":"U","NORAD_CAT_ID":36037,"ELEMENT_SET_NO":999,"REV_AT_EPOCH":86709,"BSTAR":9.6228268e-5,"MEAN_MOTION_DOT":3.67e-6,"MEAN_MOTION_DDOT":0},{"OBJECT_NAME":"DELTA 1 DEB","OBJECT_ID":"1972-058JM","EPOCH":"2026-03-09T14:55:26.397984","MEAN_MOTION":14.63031551,"ECCENTRICITY":0.0126699,"INCLINATION":98.5883,"RA_OF_ASC_NODE":210.5427,"ARG_OF_PERICENTER":359.4025,"MEAN_ANOMALY":0.7005,"EPHEMERIS_TYPE":0,"CLASSIFICATION_TYPE":"U","NORAD_CAT_ID":19834,"ELEMENT_SET_NO":999,"REV_AT_EPOCH":92547,"BSTAR":0.00018288,"MEAN_MOTION_DOT":9.93e-6,"MEAN_MOTION_DDOT":0}]
